{
  "type": "FeatureCollection",
  "features": [
    {
      "type": "Feature",
      "properties": {
        "norad_id": 30306,
        "name": "FENGYUN 1C DEB",
        "group": "fengyun-1c-debris",
        "lat": 57.51185029764745,
        "lon": 8.306385007331885,
        "alt_km": 732.9451203504623,
        "timestamp": "2025-12-06T20:37:56.347488+00:00",
        "meta_object_name": "FENGYUN 1C DEB",
        "meta_object_id": "1999-025ZT",
        "meta_epoch": "2025-12-06T01:52:09.093792",
        "meta_mean_motion": 14.28153257,
        "meta_eccentricity": 0.01136807,
        "meta_inclination": 98.5868,
        "meta_ra_of_asc_node": 21.2637,
        "meta_arg_of_pericenter": 17.149,
        "meta_mean_anomaly": 343.3483,
        "meta_ephemeris_type": 0,
        "meta_classification_type": "U",
        "meta_norad_cat_id": 30306,
        "meta_element_set_no": 999,
        "meta_rev_at_epoch": 97586,
        "meta_bstar": 0.0017345146,
        "meta_mean_motion_dot": 4.583e-05,
        "meta_mean_motion_ddot": 0,
        "tle_line1": "1 30306U 99025ZT  25340.07788303  .00004583  00000+0  17345-2 0  9998",
        "tle_line2": "2 30306  98.5868  21.2637 0113680  17.1490 343.3483 14.28153257975861"
      },
      "geometry": {
        "type": "Point",
        "coordinates": [
          8.306385007331885,
          57.51185029764745
        ]
      }
    },
    {
      "type": "Feature",
      "properties": {
        "norad_id": 30309,
        "name": "FENGYUN 1C DEB",
        "group": "fengyun-1c-debris",
        "lat": -24.82410808736697,
        "lon": 42.35163010258731,
        "alt_km": 962.4598589621846,
        "timestamp": "2025-12-06T20:37:56.347498+00:00",
        "meta_object_name": "FENGYUN 1C DEB",
        "meta_object_id": "1999-025ZW",
        "meta_epoch": "2025-12-06T15:35:05.640576",
        "meta_mean_motion": 13.93511805,
        "meta_eccentricity": 0.0093166,
        "meta_inclination": 99.2269,
        "meta_ra_of_asc_node": 37.8297,
        "meta_arg_of_pericenter": 208.3621,
        "meta_mean_anomaly": 151.245,
        "meta_ephemeris_type": 0,
        "meta_classification_type": "U",
        "meta_norad_cat_id": 30309,
        "meta_element_set_no": 999,
        "meta_rev_at_epoch": 95948,
        "meta_bstar": 0.00057492976,
        "meta_mean_motion_dot": 7.36e-06,
        "meta_mean_motion_ddot": 0,
        "tle_line1": "1 30309U 99025ZW  25340.64937084  .00000736  00000+0  57493-3 0  9991",
        "tle_line2": "2 30309  99.2269  37.8297 0093166 208.3621 151.2450 13.93511805959486"
      },
      "geometry": {
        "type": "Point",
        "coordinates": [
          42.35163010258731,
          -24.82410808736697
        ]
      }
    },
    {
      "type": "Feature",
      "properties": {
        "norad_id": 30310,
        "name": "FENGYUN 1C DEB",
        "group": "fengyun-1c-debris",
        "lat": -61.34274674879471,
        "lon": 16.924400580170964,
        "alt_km": 827.9395794916218,
        "timestamp": "2025-12-06T20:37:56.347509+00:00",
        "meta_object_name": "FENGYUN 1C DEB",
        "meta_object_id": "1999-025ZX",
        "meta_epoch": "2025-12-06T14:05:57.651648",
        "meta_mean_motion": 14.08358928,
        "meta_eccentricity": 0.02412537,
        "meta_inclination": 98.6647,
        "meta_ra_of_asc_node": 0.4611,
        "meta_arg_of_pericenter": 14.9502,
        "meta_mean_anomaly": 345.864,
        "meta_ephemeris_type": 0,
        "meta_classification_type": "U",
        "meta_norad_cat_id": 30310,
        "meta_element_set_no": 999,
        "meta_rev_at_epoch": 96645,
        "meta_bstar": 0.0011707898,
        "meta_mean_motion_dot": 2.576e-05,
        "meta_mean_motion_ddot": 0,
        "tle_line1": "1 30310U 99025ZX  25340.58747282  .00002576  00000+0  11708-2 0  9997",
        "tle_line2": "2 30310  98.6647   0.4611 0241253  14.9502 345.8640 14.08358928966457"
      },
      "geometry": {
        "type": "Point",
        "coordinates": [
          16.924400580170964,
          -61.34274674879471
        ]
      }
    },
    {
      "type": "Feature",
      "properties": {
        "norad_id": 30311,
        "name": "FENGYUN 1C DEB",
        "group": "fengyun-1c-debris",
        "lat": 61.796679106049865,
        "lon": 59.29583004237925,
        "alt_km": 1069.1472006403437,
        "timestamp": "2025-12-06T20:37:56.347520+00:00",
        "meta_object_name": "FENGYUN 1C DEB",
        "meta_object_id": "1999-025ZY",
        "meta_epoch": "2025-12-06T01:08:47.658048",
        "meta_mean_motion": 13.77878537,
        "meta_eccentricity": 0.0165055,
        "meta_inclination": 99.1399,
        "meta_ra_of_asc_node": 75.9836,
        "meta_arg_of_pericenter": 214.7114,
        "meta_mean_anomaly": 144.3179,
        "meta_ephemeris_type": 0,
        "meta_classification_type": "U",
        "meta_norad_cat_id": 30311,
        "meta_element_set_no": 999,
        "meta_rev_at_epoch": 94868,
        "meta_bstar": 0.00075300519,
        "meta_mean_motion_dot": 7.92e-06,
        "meta_mean_motion_ddot": 0,
        "tle_line1": "1 30311U 99025ZY  25340.04777382  .00000792  00000+0  75301-3 0  9991",
        "tle_line2": "2 30311  99.1399  75.9836 0165055 214.7114 144.3179 13.77878537948680"
      },
      "geometry": {
        "type": "Point",
        "coordinates": [
          59.29583004237925,
          61.796679106049865
        ]
      }
    },
    {
      "type": "Feature",
      "properties": {
        "norad_id": 30312,
        "name": "FENGYUN 1C DEB",
        "group": "fengyun-1c-debris",
        "lat": 14.964937977508622,
        "lon": -117.7378390611671,
        "alt_km": 736.3943231839248,
        "timestamp": "2025-12-06T20:37:56.347531+00:00",
        "meta_object_name": "FENGYUN 1C DEB",
        "meta_object_id": "1999-025ZZ",
        "meta_epoch": "2025-12-06T10:30:11.847168",
        "meta_mean_motion": 14.45661547,
        "meta_eccentricity": 0.00116861,
        "meta_inclination": 98.8668,
        "meta_ra_of_asc_node": 59.43,
        "meta_arg_of_pericenter": 225.5584,
        "meta_mean_anomaly": 264.074,
        "meta_ephemeris_type": 0,
        "meta_classification_type": "U",
        "meta_norad_cat_id": 30312,
        "meta_element_set_no": 999,
        "meta_rev_at_epoch": 97829,
        "meta_bstar": 0.0045906085,
        "meta_mean_motion_dot": 0.00016242,
        "meta_mean_motion_ddot": 0,
        "tle_line1": "1 30312U 99025ZZ  25340.43763712  .00016242  00000+0  45906-2 0  9991",
        "tle_line2": "2 30312  98.8668  59.4300 0011686 225.5584 264.0740 14.45661547978291"
      },
      "geometry": {
        "type": "Point",
        "coordinates": [
          -117.7378390611671,
          14.964937977508622
        ]
      }
    },
    {
      "type": "Feature",
      "properties": {
        "norad_id": 30313,
        "name": "FENGYUN 1C DEB",
        "group": "fengyun-1c-debris",
        "lat": -40.66542468013521,
        "lon": 74.67487257191543,
        "alt_km": 780.3876570480625,
        "timestamp": "2025-12-06T20:37:56.347541+00:00",
        "meta_object_name": "FENGYUN 1C DEB",
        "meta_object_id": "1999-025AAA",
        "meta_epoch": "2025-12-06T11:18:55.503936",
        "meta_mean_motion": 14.2538185,
        "meta_eccentricity": 0.00562653,
        "meta_inclination": 98.876,
        "meta_ra_of_asc_node": 66.5671,
        "meta_arg_of_pericenter": 354.7027,
        "meta_mean_anomaly": 133.5903,
        "meta_ephemeris_type": 0,
        "meta_classification_type": "U",
        "meta_norad_cat_id": 30313,
        "meta_element_set_no": 999,
        "meta_rev_at_epoch": 97000,
        "meta_bstar": 0.0030595637,
        "meta_mean_motion_dot": 7.296e-05,
        "meta_mean_motion_ddot": 0,
        "tle_line1": "1 30313U 99025AAA 25340.47147574  .00007296  00000+0  30596-2 0  9996",
        "tle_line2": "2 30313  98.8760  66.5671 0056265 354.7027 133.5903 14.25381850970000"
      },
      "geometry": {
        "type": "Point",
        "coordinates": [
          74.67487257191543,
          -40.66542468013521
        ]
      }
    },
    {
      "type": "Feature",
      "properties": {
        "norad_id": 30314,
        "name": "FENGYUN 1C DEB",
        "group": "fengyun-1c-debris",
        "lat": 43.05157768266193,
        "lon": 0.11923195928075475,
        "alt_km": 939.6693964551032,
        "timestamp": "2025-12-06T20:37:56.347552+00:00",
        "meta_object_name": "FENGYUN 1C DEB",
        "meta_object_id": "1999-025AAB",
        "meta_epoch": "2025-12-05T11:25:49.544832",
        "meta_mean_motion": 14.01155189,
        "meta_eccentricity": 0.01425643,
        "meta_inclination": 98.3813,
        "meta_ra_of_asc_node": 170.9323,
        "meta_arg_of_pericenter": 18.3994,
        "meta_mean_anomaly": 342.2256,
        "meta_ephemeris_type": 0,
        "meta_classification_type": "U",
        "meta_norad_cat_id": 30314,
        "meta_element_set_no": 999,
        "meta_rev_at_epoch": 96007,
        "meta_bstar": 0.001626767,
        "meta_mean_motion_dot": 2.631e-05,
        "meta_mean_motion_ddot": 0,
        "tle_line1": "1 30314U 99025AAB 25339.47626788  .00002631  00000+0  16268-2 0  9992",
        "tle_line2": "2 30314  98.3813 170.9323 0142564  18.3994 342.2256 14.01155189960077"
      },
      "geometry": {
        "type": "Point",
        "coordinates": [
          0.11923195928075475,
          43.05157768266193
        ]
      }
    }
  ]
}